HULIANWANG DIGUI-146    
1 67522U 26013A   26041.47785880 -.00000036  00000+0  10228-3 0  9999
2 67522  50.0080  96.6646 0000779 329.5253  30.5596 13.79779735  3094
HULIANWANG DIGUI-147    
1 67523U 26013B   26041.47627234 -.00000041  00000+0  97686-4 0  9998
2 67523  50.0031  96.6367 0001429  37.3556 322.7437 13.79841227  3090
HULIANWANG DIGUI-148    
1 67524U 26013C   26041.47197251 -.00000017  00000+0  11942-3 0  9993
2 67524  50.0093  96.6367 0000260  66.4014 293.6907 13.80236269  3097
HULIANWANG DIGUI-149    
1 67525U 26013D   26041.68599346 -.00000030  00000+0  10712-3 0  9997
2 67525  50.0028  95.7733 0002478  56.9951 303.1181 13.80231337  3126
HULIANWANG DIGUI-150    
1 67526U 26013E   26041.67944569 -.00000029  00000+0  10804-3 0  9998
2 67526  50.0086  95.7028 0002150 196.1408 163.9418 13.80545543  3143
HULIANWANG DIGUI-151    
1 67527U 26013F   26041.67610753  .00000000  00000+0  13099-3 0  9991
2 67527  50.0148  95.6968 0003563 197.6190 162.4583 13.82707543  3125
HULIANWANG DIGUI-152    
1 67528U 26013G   26041.38819321 -.00000010  00000+0  12389-3 0  9995
2 67528  50.0085  96.8367 0001444  58.6311 301.4725 13.81454105  3089
HULIANWANG DIGUI-153    
1 67529U 26013H   26041.38214428 -.00000123  00000+0  18142-4 0  9992
2 67529  50.0069  96.7952 0000441 258.0121 102.0724 13.82103239  3075
HULIANWANG DIGUI-154    
1 67530U 26013J   26041.30728729  .00000049  00000+0  17705-3 0  9999
2 67530  50.0119  97.0845 0000801  34.8680 325.2268 13.82387020  3061
CZ-12 R/B               
1 67531U 26013K   26041.62432691 -.00000052  00000+0  52226-4 0  9998
2 67531  49.9940  92.7401 0068907 204.5348 155.2276 14.14458023  3157
STARLINK-36587          
1 67532U 26014A   26041.89948912  .00227359  00000+0  11530-2 0  9998
2 67532  97.2829 285.4741 0001459  61.5726 298.5689 15.80893007  4359
STARLINK-36417          
1 67533U 26014B   26041.91792329  .00164772  00000+0  10821-2 0  9992
2 67533  97.2846 285.4490 0001415  91.0159 269.1268 15.75238797  4350
