CCSDS_OMM_VERS = 2.0
CREATION_DATE  = 
ORIGINATOR     = 

OBJECT_NAME    = HULIANWANG DIGUI-146
OBJECT_ID      = 2026-013A
CENTER_NAME    = EARTH
REF_FRAME      = TEME
TIME_SYSTEM    = UTC
MEAN_ELEMENT_THEORY = SGP/SGP4

EPOCH          = 2026-02-10T11:28:07.000320
MEAN_MOTION    = 13.79779735
ECCENTRICITY   = .0000779
INCLINATION    = 50.0080
RA_OF_ASC_NODE = 96.6646
ARG_OF_PERICENTER = 329.5253
MEAN_ANOMALY   = 30.5596

EPHEMERIS_TYPE = 0
CLASSIFICATION_TYPE = U
NORAD_CAT_ID   = 67522
ELEMENT_SET_NO = 999
REV_AT_EPOCH   = 309
BSTAR          = .10227668E-3
MEAN_MOTION_DOT = -.36E-6
MEAN_MOTION_DDOT = 0

CCSDS_OMM_VERS = 2.0
CREATION_DATE  = 
ORIGINATOR     = 

OBJECT_NAME    = HULIANWANG DIGUI-147
OBJECT_ID      = 2026-013B
CENTER_NAME    = EARTH
REF_FRAME      = TEME
TIME_SYSTEM    = UTC
MEAN_ELEMENT_THEORY = SGP/SGP4

EPOCH          = 2026-02-10T11:25:49.930176
MEAN_MOTION    = 13.79841227
ECCENTRICITY   = .00014297
INCLINATION    = 50.0031
RA_OF_ASC_NODE = 96.6367
ARG_OF_PERICENTER = 37.3556
MEAN_ANOMALY   = 322.7437

EPHEMERIS_TYPE = 0
CLASSIFICATION_TYPE = U
NORAD_CAT_ID   = 67523
ELEMENT_SET_NO = 999
REV_AT_EPOCH   = 309
BSTAR          = .97685528E-4
MEAN_MOTION_DOT = -.41E-6
MEAN_MOTION_DDOT = 0

CCSDS_OMM_VERS = 2.0
CREATION_DATE  = 
ORIGINATOR     = 

OBJECT_NAME    = HULIANWANG DIGUI-148
OBJECT_ID      = 2026-013C
CENTER_NAME    = EARTH
REF_FRAME      = TEME
TIME_SYSTEM    = UTC
MEAN_ELEMENT_THEORY = SGP/SGP4

EPOCH          = 2026-02-10T11:19:38.424864
MEAN_MOTION    = 13.80236269
ECCENTRICITY   = .00002608
INCLINATION    = 50.0093
RA_OF_ASC_NODE = 96.6367
ARG_OF_PERICENTER = 66.4014
MEAN_ANOMALY   = 293.6907

EPHEMERIS_TYPE = 0
CLASSIFICATION_TYPE = U
NORAD_CAT_ID   = 67524
ELEMENT_SET_NO = 999
REV_AT_EPOCH   = 309
BSTAR          = .11941544E-3
MEAN_MOTION_DOT = -.17E-6
MEAN_MOTION_DDOT = 0

CCSDS_OMM_VERS = 2.0
CREATION_DATE  = 
ORIGINATOR     = 

OBJECT_NAME    = HULIANWANG DIGUI-149
OBJECT_ID      = 2026-013D
CENTER_NAME    = EARTH
REF_FRAME      = TEME
TIME_SYSTEM    = UTC
MEAN_ELEMENT_THEORY = SGP/SGP4

EPOCH          = 2026-02-10T16:27:49.834944
MEAN_MOTION    = 13.80231337
ECCENTRICITY   = .00024781
INCLINATION    = 50.0028
RA_OF_ASC_NODE = 95.7733
ARG_OF_PERICENTER = 56.9951
MEAN_ANOMALY   = 303.1181

EPHEMERIS_TYPE = 0
CLASSIFICATION_TYPE = U
NORAD_CAT_ID   = 67525
ELEMENT_SET_NO = 999
REV_AT_EPOCH   = 312
BSTAR          = .10712256E-3
MEAN_MOTION_DOT = -.3E-6
MEAN_MOTION_DDOT = 0

CCSDS_OMM_VERS = 2.0
CREATION_DATE  = 
ORIGINATOR     = 

OBJECT_NAME    = HULIANWANG DIGUI-150
OBJECT_ID      = 2026-013E
CENTER_NAME    = EARTH
REF_FRAME      = TEME
TIME_SYSTEM    = UTC
MEAN_ELEMENT_THEORY = SGP/SGP4

EPOCH          = 2026-02-10T16:18:24.107616
MEAN_MOTION    = 13.80545543
ECCENTRICITY   = .00021508
INCLINATION    = 50.0086
RA_OF_ASC_NODE = 95.7028
ARG_OF_PERICENTER = 196.1408
MEAN_ANOMALY   = 163.9418

EPHEMERIS_TYPE = 0
CLASSIFICATION_TYPE = U
NORAD_CAT_ID   = 67526
ELEMENT_SET_NO = 999
REV_AT_EPOCH   = 314
BSTAR          = .10803614E-3
MEAN_MOTION_DOT = -.29E-6
MEAN_MOTION_DDOT = 0

CCSDS_OMM_VERS = 2.0
CREATION_DATE  = 
ORIGINATOR     = 

OBJECT_NAME    = HULIANWANG DIGUI-151
OBJECT_ID      = 2026-013F
CENTER_NAME    = EARTH
REF_FRAME      = TEME
TIME_SYSTEM    = UTC
MEAN_ELEMENT_THEORY = SGP/SGP4

EPOCH          = 2026-02-10T16:13:35.690592
MEAN_MOTION    = 13.82707543
ECCENTRICITY   = .00035636
INCLINATION    = 50.0148
RA_OF_ASC_NODE = 95.6968
ARG_OF_PERICENTER = 197.6190
MEAN_ANOMALY   = 162.4583

EPHEMERIS_TYPE = 0
CLASSIFICATION_TYPE = U
NORAD_CAT_ID   = 67527
ELEMENT_SET_NO = 999
REV_AT_EPOCH   = 312
BSTAR          = .13099095E-3
MEAN_MOTION_DOT = 0
MEAN_MOTION_DDOT = 0

CCSDS_OMM_VERS = 2.0
CREATION_DATE  = 
ORIGINATOR     = 

OBJECT_NAME    = HULIANWANG DIGUI-152
OBJECT_ID      = 2026-013G
CENTER_NAME    = EARTH
REF_FRAME      = TEME
TIME_SYSTEM    = UTC
MEAN_ELEMENT_THEORY = SGP/SGP4

EPOCH          = 2026-02-10T09:18:59.893344
MEAN_MOTION    = 13.81454105
ECCENTRICITY   = .00014442
INCLINATION    = 50.0085
RA_OF_ASC_NODE = 96.8367
ARG_OF_PERICENTER = 58.6311
MEAN_ANOMALY   = 301.4725

EPHEMERIS_TYPE = 0
CLASSIFICATION_TYPE = U
NORAD_CAT_ID   = 67528
ELEMENT_SET_NO = 999
REV_AT_EPOCH   = 308
BSTAR          = .12389113E-3
MEAN_MOTION_DOT = -.1E-6
MEAN_MOTION_DDOT = 0

CCSDS_OMM_VERS = 2.0
CREATION_DATE  = 
ORIGINATOR     = 

OBJECT_NAME    = HULIANWANG DIGUI-153
OBJECT_ID      = 2026-013H
CENTER_NAME    = EARTH
REF_FRAME      = TEME
TIME_SYSTEM    = UTC
MEAN_ELEMENT_THEORY = SGP/SGP4

EPOCH          = 2026-02-10T09:10:17.265792
MEAN_MOTION    = 13.82103239
ECCENTRICITY   = .00004412
INCLINATION    = 50.0069
RA_OF_ASC_NODE = 96.7952
ARG_OF_PERICENTER = 258.0121
MEAN_ANOMALY   = 102.0724

EPHEMERIS_TYPE = 0
CLASSIFICATION_TYPE = U
NORAD_CAT_ID   = 67529
ELEMENT_SET_NO = 999
REV_AT_EPOCH   = 307
BSTAR          = .18141627E-4
MEAN_MOTION_DOT = -.123E-5
MEAN_MOTION_DDOT = 0

CCSDS_OMM_VERS = 2.0
CREATION_DATE  = 
ORIGINATOR     = 

OBJECT_NAME    = HULIANWANG DIGUI-154
OBJECT_ID      = 2026-013J
CENTER_NAME    = EARTH
REF_FRAME      = TEME
TIME_SYSTEM    = UTC
MEAN_ELEMENT_THEORY = SGP/SGP4

EPOCH          = 2026-02-10T07:22:29.621856
MEAN_MOTION    = 13.82387020
ECCENTRICITY   = .00008015
INCLINATION    = 50.0119
RA_OF_ASC_NODE = 97.0845
ARG_OF_PERICENTER = 34.8680
MEAN_ANOMALY   = 325.2268

EPHEMERIS_TYPE = 0
CLASSIFICATION_TYPE = U
NORAD_CAT_ID   = 67530
ELEMENT_SET_NO = 999
REV_AT_EPOCH   = 306
BSTAR          = .17704616E-3
MEAN_MOTION_DOT = .49E-6
MEAN_MOTION_DDOT = 0

CCSDS_OMM_VERS = 2.0
CREATION_DATE  = 
ORIGINATOR     = 

OBJECT_NAME    = CZ-12 R/B
OBJECT_ID      = 2026-013K
CENTER_NAME    = EARTH
REF_FRAME      = TEME
TIME_SYSTEM    = UTC
MEAN_ELEMENT_THEORY = SGP/SGP4

EPOCH          = 2026-02-10T14:59:01.845024
MEAN_MOTION    = 14.14458023
ECCENTRICITY   = .00689071
INCLINATION    = 49.9940
RA_OF_ASC_NODE = 92.7401
ARG_OF_PERICENTER = 204.5348
MEAN_ANOMALY   = 155.2276

EPHEMERIS_TYPE = 0
CLASSIFICATION_TYPE = U
NORAD_CAT_ID   = 67531
ELEMENT_SET_NO = 999
REV_AT_EPOCH   = 315
BSTAR          = .52226018E-4
MEAN_MOTION_DOT = -.52E-6
MEAN_MOTION_DDOT = 0

CCSDS_OMM_VERS = 2.0
CREATION_DATE  = 
ORIGINATOR     = 

OBJECT_NAME    = STARLINK-36587
OBJECT_ID      = 2026-014A
CENTER_NAME    = EARTH
REF_FRAME      = TEME
TIME_SYSTEM    = UTC
MEAN_ELEMENT_THEORY = SGP/SGP4

EPOCH          = 2026-02-10T21:35:15.859968
MEAN_MOTION    = 15.80893007
ECCENTRICITY   = .00014599
INCLINATION    = 97.2829
RA_OF_ASC_NODE = 285.4741
ARG_OF_PERICENTER = 61.5726
MEAN_ANOMALY   = 298.5689

EPHEMERIS_TYPE = 0
CLASSIFICATION_TYPE = U
NORAD_CAT_ID   = 67532
ELEMENT_SET_NO = 999
REV_AT_EPOCH   = 435
BSTAR          = .11529835E-2
MEAN_MOTION_DOT = .227359E-2
MEAN_MOTION_DDOT = 0

CCSDS_OMM_VERS = 2.0
CREATION_DATE  = 
ORIGINATOR     = 

OBJECT_NAME    = STARLINK-36417
OBJECT_ID      = 2026-014B
CENTER_NAME    = EARTH
REF_FRAME      = TEME
TIME_SYSTEM    = UTC
MEAN_ELEMENT_THEORY = SGP/SGP4

EPOCH          = 2026-02-10T22:01:48.572256
MEAN_MOTION    = 15.75238797
ECCENTRICITY   = .00014152
INCLINATION    = 97.2846
RA_OF_ASC_NODE = 285.4490
ARG_OF_PERICENTER = 91.0159
MEAN_ANOMALY   = 269.1268

EPHEMERIS_TYPE = 0
CLASSIFICATION_TYPE = U
NORAD_CAT_ID   = 67533
ELEMENT_SET_NO = 999
REV_AT_EPOCH   = 435
BSTAR          = .10821082E-2
MEAN_MOTION_DOT = .164772E-2
MEAN_MOTION_DDOT = 0

